{
    "@context": [
        "https://geojson.org/geojson-ld/geojson-context.jsonld",
        {
            "@version": "1.1",
            "wx": "https://api.weather.gov/ontology#",
            "s": "https://schema.org/",
            "geo": "http://www.opengis.net/ont/geosparql#",
            "unit": "http://codes.wmo.int/common/unit/",
            "@vocab": "https://api.weather.gov/ontology#",
            "geometry": {
                "@id": "s:GeoCoordinates",
                "@type": "geo:wktLiteral"
            },
            "city": "s:addressLocality",
            "state": "s:addressRegion",
            "distance": {
                "@id": "s:Distance",
                "@type": "s:QuantitativeValue"
            },
            "bearing": {
                "@type": "s:QuantitativeValue"
            },
            "value": {
                "@id": "s:value"
            },
            "unitCode": {
                "@id": "s:unitCode",
                "@type": "@id"
            },
            "forecastOffice": {
                "@type": "@id"
            },
            "forecastGridData": {
                "@type": "@id"
            },
            "publicZone": {
                "@type": "@id"
            },
            "county": {
                "@type": "@id"
            }
        }
    ],
    "id": "https://api.weather.gov/points/40.7128,-74.006",
    "type": "Feature",
    "geometry": {
        "type": "Point",
        "coordinates": [
            -74.006,
            40.7128
        ]
    },
    "properties": {
        "@id": "https://api.weather.gov/points/40.7128,-74.006",
        "@type": "wx:Point",
        "cwa": "OKX",
        "type": "land",
        "forecastOffice": "https://api.weather.gov/offices/OKX",
        "gridId": "OKX",
        "gridX": 33,
        "gridY": 42,
        "forecast": "https://api.weather.gov/gridpoints/OKX/33,42/forecast",
        "forecastHourly": "https://api.weather.gov/gridpoints/OKX/33,42/forecast/hourly",
        "forecastGridData": "https://api.weather.gov/gridpoints/OKX/33,42",
        "observationStations": "https://api.weather.gov/gridpoints/OKX/33,42/stations",
        "relativeLocation": {
            "type": "Feature",
            "geometry": {
                "type": "Point",
                "coordinates": [
                    -73.9386769,
                    40.6627117
                ]
            },
            "properties": {
                "city": "New York",
                "state": "NY",
                "distance": {
                    "unitCode": "wmoUnit:m",
                    "value": 0
                },
                "bearing": {
                    "unitCode": "wmoUnit:degree_(angle)",
                    "value": 0
                }
            }
        },
        "forecastZone": "https://api.weather.gov/zones/forecast/NYZ072",
        "county": "https://api.weather.gov/zones/county/NYC061",
        "fireWeatherZone": "https://api.weather.gov/zones/fire/NYZ212",
        "timeZone": "America/New_York",
        "radarStation": "KDIX",
        "astronomicalData": {
            "sunrise": "2026-08-31T06:22:19-04:00",
            "sunset": "2026-08-31T19:30:13-04:00",
            "transit": "2026-08-31T12:56:16-04:00",
            "civilTwilightBegin": "2026-08-31T05:54:16-04:00",
            "civilTwilightEnd": "2026-08-31T19:58:17-04:00",
            "nauticalTwilightBegin": "2026-08-31T05:20:40-04:00",
            "nauticalTwilightEnd": "2026-08-31T20:31:53-04:00",
            "astronomicalTwilightBegin": "2026-08-31T04:45:32-04:00",
            "astronomicalTwilightEnd": "2026-08-31T21:07:01-04:00"
        },
        "nwr": {
            "transmitter": "KWO35",
            "sameCode": "036061",
            "areaBroadcast": "https://api.weather.gov/radio/KWO35/broadcast",
            "pointBroadcast": "https://api.weather.gov/points/40.7128,-74.006/radio"
        }
    }
}